{"type": "FeatureCollection", "features": [ {"type": "Feature", "properties": {"norad_id": 33728, "name": "FENGYUN 1C DEB", "group": "fengyun-1c-debris", "lat": 16.421759016197104, "lon": -125.0153778300129, "alt_km": 496.065500123922, "timestamp": "2025-12-21T05:44:51.872972+00:00", "meta": {"OBJECT_NAME": "FENGYUN 1C DEB", "OBJECT_ID": "1999-025DHR", "EPOCH": "2025-12-19T03:08:31.669440", "MEAN_MOTION": 14.92712258, "ECCENTRICITY": 0.01477777, "INCLINATION": 98.9792, "RA_OF_ASC_NODE": 49.9098, "ARG_OF_PERICENTER": 194.4676, "MEAN_ANOMALY": 165.2288, "EPHEMERIS_TYPE": 0, "CLASSIFICATION_TYPE": "U", "NORAD_CAT_ID": 33728, "ELEMENT_SET_NO": 999, "REV_AT_EPOCH": 98395, "BSTAR": 0.00039692023, "MEAN_MOTION_DOT": 4.984e-05, "MEAN_MOTION_DDOT": 0}, "tle": {"line1": "1 33728U 99025DHR 25353.13092210  .00004984  00000+0  39692-3 0  9990", "line2": "2 33728  98.9792  49.9098 0147777 194.4676 165.2288 14.92712258983955"}}, "geometry": {"type": "Point", "coordinates": [-125.0153778300129, 16.421759016197104]}}, {"type": "Feature", "properties": {"norad_id": 33730, "name": "FENGYUN 1C DEB", "group": "fengyun-1c-debris", "lat": -79.10243944053354, "lon": 177.89662971566014, "alt_km": 684.4477932169411, "timestamp": "2025-12-21T05:44:51.872982+00:00", "meta": {"OBJECT_NAME": "FENGYUN 1C DEB", "OBJECT_ID": "1999-025DHT", "EPOCH": "2025-12-17T10:18:00.572256", "MEAN_MOTION": 14.63540792, "ECCENTRICITY": 0.00393712, "INCLINATION": 99.0546, "RA_OF_ASC_NODE": 49.6389, "ARG_OF_PERICENTER": 356.5197, "MEAN_ANOMALY": 3.5723, "EPHEMERIS_TYPE": 0, "CLASSIFICATION_TYPE": "U", "NORAD_CAT_ID": 33730, "ELEMENT_SET_NO": 999, "REV_AT_EPOCH": 95748, "BSTAR": 0.0011805307, "MEAN_MOTION_DOT": 6.139e-05, "MEAN_MOTION_DDOT": 0}, "tle": {"line1": "1 33730U 99025DHT 25351.42917329  .00006139  00000+0  11805-2 0  9999", "line2": "2 33730  99.0546  49.6389 0039371 356.5197   3.5723 14.63540792957483"}}, "geometry": {"type": "Point", "coordinates": [177.89662971566014, -79.10243944053354]}}, {"type": "Feature", "properties": {"norad_id": 33731, "name": "FENGYUN 1C DEB", "group": "fengyun-1c-debris", "lat": -28.701506592373764, "lon": -167.56507521786924, "alt_km": 1009.5026570286727, "timestamp": "2025-12-21T05:44:51.872991+00:00", "meta": {"OBJECT_NAME": "FENGYUN 1C DEB", "OBJECT_ID": "1999-025DHU", "EPOCH": "2025-12-14T07:32:51.114336", "MEAN_MOTION": 13.95346461, "ECCENTRICITY": 0.01291818, "INCLINATION": 99.4471, "RA_OF_ASC_NODE": 10.5718, "ARG_OF_PERICENTER": 51.9301, "MEAN_ANOMALY": 309.3431, "EPHEMERIS_TYPE": 0, "CLASSIFICATION_TYPE": "U", "NORAD_CAT_ID": 33731, "ELEMENT_SET_NO": 999, "REV_AT_EPOCH": 90471, "BSTAR": 0.0013457717, "MEAN_MOTION_DOT": 1.908e-05, "MEAN_MOTION_DDOT": 0}, "tle": {"line1": "1 33731U 99025DHU 25348.31448049  .00001908  00000+0  13458-2 0  9997", "line2": "2 33731  99.4471  10.5718 0129181  51.9301 309.3431 13.95346461904712"}}, "geometry": {"type": "Point", "coordinates": [-167.56507521786924, -28.701506592373764]}}, {"type": "Feature", "properties": {"norad_id": 33733, "name": "FENGYUN 1C DEB", "group": "fengyun-1c-debris", "lat": -19.463639821543513, "lon": -102.28482083297621, "alt_km": 758.3705806110565, "timestamp": "2025-12-21T05:44:51.873005+00:00", "meta": {"OBJECT_NAME": "FENGYUN 1C DEB", "OBJECT_ID": "1999-025DHW", "EPOCH": "2025-12-14T05:17:42.025920", "MEAN_MOTION": 14.31053637, "ECCENTRICITY": 0.00804283, "INCLINATION": 99.0978, "RA_OF_ASC_NODE": 73.616, "ARG_OF_PERICENTER": 166.2685, "MEAN_ANOMALY": 251.3146, "EPHEMERIS_TYPE": 0, "CLASSIFICATION_TYPE": "U", "NORAD_CAT_ID": 33733, "ELEMENT_SET_NO": 999, "REV_AT_EPOCH": 90469, "BSTAR": 0.0039221093, "MEAN_MOTION_DOT": 0.00010671, "MEAN_MOTION_DDOT": 0}, "tle": {"line1": "1 33733U 99025DHW 25348.22062530  .00010671  00000+0  39221-2 0  9999", "line2": "2 33733  99.0978  73.6160 0080428 166.2685 251.3146 14.31053637904695"}}, "geometry": {"type": "Point", "coordinates": [-102.28482083297621, -19.463639821543513]}}, {"type": "Feature", "properties": {"norad_id": 33737, "name": "FENGYUN 1C DEB", "group": "fengyun-1c-debris", "lat": -72.30527356902553, "lon": -18.918428253030406, "alt_km": 797.653988704873, "timestamp": "2025-12-21T05:44:51.873015+00:00", "meta": {"OBJECT_NAME": "FENGYUN 1C DEB", "OBJECT_ID": "1999-025DJA", "EPOCH": "2025-12-20T11:33:34.449408", "MEAN_MOTION": 14.03028053, "ECCENTRICITY": 0.01284036, "INCLINATION": 98.3376, "RA_OF_ASC_NODE": 187.7515, "ARG_OF_PERICENTER": 261.1373, "MEAN_ANOMALY": 127.6514, "EPHEMERIS_TYPE": 0, "CLASSIFICATION_TYPE": "U", "NORAD_CAT_ID": 33737, "ELEMENT_SET_NO": 999, "REV_AT_EPOCH": 88849, "BSTAR": 0.0010504439, "MEAN_MOTION_DOT": 1.715e-05, "MEAN_MOTION_DDOT": 0}, "tle": {"line1": "1 33737U 99025DJA 25354.48164872  .00001715  00000+0  10504-2 0  9992", "line2": "2 33737  98.3376 187.7515 0128403 261.1373 127.6514 14.03028053888495"}}, "geometry": {"type": "Point", "coordinates": [-18.918428253030406, -72.30527356902553]}}, {"type": "Feature", "properties": {"norad_id": 33738, "name": "FENGYUN 1C DEB", "group": "fengyun-1c-debris", "lat": 68.48429460231071, "lon": 31.13857252183189, "alt_km": 845.8555713509759, "timestamp": "2025-12-21T05:44:51.873025+00:00", "meta": {"OBJECT_NAME": "FENGYUN 1C DEB", "OBJECT_ID": "1999-025DJB", "EPOCH": "2025-12-19T10:35:57.715008", "MEAN_MOTION": 13.99542452, "ECCENTRICITY": 0.0184532, "INCLINATION": 99.151, "RA_OF_ASC_NODE": 53.475, "ARG_OF_PERICENTER": 3.0137, "MEAN_ANOMALY": 12.1975, "EPHEMERIS_TYPE": 0, "CLASSIFICATION_TYPE": "U", "NORAD_CAT_ID": 33738, "ELEMENT_SET_NO": 999, "REV_AT_EPOCH": 89330, "BSTAR": 0.00041438, "MEAN_MOTION_DOT": 6.55e-06, "MEAN_MOTION_DDOT": 0}, "tle": {"line1": "1 33738U 99025DJB 25353.44164022  .00000655  00000+0  41438-3 0  9998", "line2": "2 33738  99.1510  53.4750 0184532   3.0137  12.1975 13.99542452893304"}}, "geometry": {"type": "Point", "coordinates": [31.13857252183189, 68.48429460231071]}}, {"type": "Feature", "properties": {"norad_id": 33740, "name": "FENGYUN 1C DEB", "group": "fengyun-1c-debris", "lat": 42.182309787252535, "lon": -164.1477329201512, "alt_km": 846.5058796591575, "timestamp": "2025-12-21T05:44:51.873035+00:00", "meta": {"OBJECT_NAME": "FENGYUN 1C DEB", "OBJECT_ID": "1999-025DJD", "EPOCH": "2025-12-18T07:23:22.108128", "MEAN_MOTION": 14.12325643, "ECCENTRICITY": 0.00021877, "INCLINATION": 98.6868, "RA_OF_ASC_NODE": 5.0478, "ARG_OF_PERICENTER": 119.664, "MEAN_ANOMALY": 240.475, "EPHEMERIS_TYPE": 0, "CLASSIFICATION_TYPE": "U", "NORAD_CAT_ID": 33740, "ELEMENT_SET_NO": 999, "REV_AT_EPOCH": 90225, "BSTAR": 0.00012962131, "MEAN_MOTION_DOT": 1.96e-06, "MEAN_MOTION_DDOT": 0}, "tle": {"line1": "1 33740U 99025DJD 25352.30789477  .00000196  00000+0  12962-3 0  9992", "line2": "2 33740  98.6868   5.0478 0002187 119.6640 240.4750 14.12325643902254"}}, "geometry": {"type": "Point", "coordinates": [-164.1477329201512, 42.182309787252535]}}, {"type": "Feature", "properties": {"norad_id": 33741, "name": "FENGYUN 1C DEB", "group": "fengyun-1c-debris", "lat": 76.02603008185413, "lon": 125.7060253674221, "alt_km": 777.6308045169562, "timestamp": "2025-12-21T05:44:51.873045+00:00", "meta": {"OBJECT_NAME": "FENGYUN 1C DEB", "OBJECT_ID": "1999-025DJE", "EPOCH": "2025-12-20T17:21:28.699776", "MEAN_MOTION": 14.09870103, "ECCENTRICITY": 0.01285709, "INCLINATION": 98.5653, "RA_OF_ASC_NODE": 267.9394, "ARG_OF_PERICENTER": 65.7344, "MEAN_ANOMALY": 295.7197, "EPHEMERIS_TYPE": 0, "CLASSIFICATION_TYPE": "U", "NORAD_CAT_ID": 33741, "ELEMENT_SET_NO": 999, "REV_AT_EPOCH": 56975, "BSTAR": 0.0014103397, "MEAN_MOTION_DOT": 2.64e-05, "MEAN_MOTION_DDOT": 0}, "tle": {"line1": "1 33741U 99025DJE 25354.72324884  .00002640  00000+0  14103-2 0  9992", "line2": "2 33741  98.5653 267.9394 0128570  65.7344 295.7197 14.09870103569753"}}, "geometry": {"type": "Point", "coordinates": [125.7060253674221, 76.02603008185413]}}, {"type": "Feature", "properties": {"norad_id": 33745, "name": "FENGYUN 1C DEB", "group": "fengyun-1c-debris", "lat": 56.53288917676005, "lon": -133.2571098071335, "alt_km": 830.948340034307, "timestamp": "2025-12-21T05:44:51.873055+00:00", "meta": {"OBJECT_NAME": "FENGYUN 1C DEB", "OBJECT_ID": "1999-025DJJ", "EPOCH": "2025-12-17T13:22:43.604832", "MEAN_MOTION": 14.22346964, "ECCENTRICITY": 0.00542183, "INCLINATION": 99.1148, "RA_OF_ASC_NODE": 28.8825, "ARG_OF_PERICENTER": 252.2828, "MEAN_ANOMALY": 107.2426, "EPHEMERIS_TYPE": 0, "CLASSIFICATION_TYPE": "U", "NORAD_CAT_ID": 33745, "ELEMENT_SET_NO": 999, "REV_AT_EPOCH": 66070, "BSTAR": 0.0010724416, "MEAN_MOTION_DOT": 2.374e-05, "MEAN_MOTION_DDOT": 0}, "tle": {"line1": "1 33745U 99025DJJ 25351.55744913  .00002374  00000+0  10724-2 0  9992", "line2": "2 33745  99.1148  28.8825 0054218 252.2828 107.2426 14.22346964660700"}}, "geometry": {"type": "Point", "coordinates": [-133.2571098071335, 56.53288917676005]}}, {"type": "Feature", "properties": {"norad_id": 33747, "name": "FENGYUN 1C DEB", "group": "fengyun-1c-debris", "lat": -68.3092806945991, "lon": -113.63175646972934, "alt_km": 804.178668743567, "timestamp": "2025-12-21T05:44:51.873065+00:00", "meta": {"OBJECT_NAME": "FENGYUN 1C DEB", "OBJECT_ID": "1999-025DJL", "EPOCH": "2025-12-20T01:28:07.665312", "MEAN_MOTION": 14.17505011, "ECCENTRICITY": 0.00910261, "INCLINATION": 99.0962, "RA_OF_ASC_NODE": 88.9142, "ARG_OF_PERICENTER": 197.1954, "MEAN_ANOMALY": 162.6131, "EPHEMERIS_TYPE": 0, "CLASSIFICATION_TYPE": "U", "NORAD_CAT_ID": 33747, "ELEMENT_SET_NO": 999, "REV_AT_EPOCH": 90236, "BSTAR": 0.001836775, "MEAN_MOTION_DOT": 3.837e-05, "MEAN_MOTION_DDOT": 0}, "tle": {"line1": "1 33747U 99025DJL 25354.06119983  .00003837  00000+0  18368-2 0  9993", "line2": "2 33747  99.0962  88.9142 0091026 197.1954 162.6131 14.17505011902362"}}, "geometry": {"type": "Point", "coordinates": [-113.63175646972934, -68.3092806945991]}}]}